{"type": "FeatureCollection", "features": [ {"type": "Feature", "properties": {"norad_id": 66499, "name": "STARLINK-35816", "group": "last-30-days", "lat": 42.83979076133008, "lon": -117.91101001258379, "alt_km": 395.47384378368497, "timestamp": "2025-12-07T03:52:31.203473+00:00", "meta": {"OBJECT_NAME": "STARLINK-35816", "OBJECT_ID": "2025-263Q", "EPOCH": "2025-12-06T14:00:01.999872", "MEAN_MOTION": 15.58008439, "ECCENTRICITY": 0.00014152, "INCLINATION": 42.9997, "RA_OF_ASC_NODE": 161.1571, "ARG_OF_PERICENTER": 272.1252, "MEAN_ANOMALY": 170.035, "EPHEMERIS_TYPE": 0, "CLASSIFICATION_TYPE": "U", "NORAD_CAT_ID": 66499, "ELEMENT_SET_NO": 999, "REV_AT_EPOCH": 464, "BSTAR": -0.030780294, "MEAN_MOTION_DOT": -0.02109495, "MEAN_MOTION_DDOT": 0}, "tle": {"line1": "1 66499U 25263Q   25340.58335648 -.02109495  00000+0 -30780-1 0  9998", "line2": "2 66499  42.9997 161.1571 0001415 272.1252 170.0350 15.58008439  4643"}}, "geometry": {"type": "Point", "coordinates": [-117.91101001258379, 42.83979076133008]}}, {"type": "Feature", "properties": {"norad_id": 66500, "name": "STARLINK-35894", "group": "last-30-days", "lat": 30.622834318580253, "lon": -162.72577618711645, "alt_km": 410.01457655066406, "timestamp": "2025-12-07T03:52:31.203484+00:00", "meta": {"OBJECT_NAME": "STARLINK-35894", "OBJECT_ID": "2025-263R", "EPOCH": "2025-12-06T14:00:01.999872", "MEAN_MOTION": 15.54009963, "ECCENTRICITY": 0.00018219, "INCLINATION": 42.9993, "RA_OF_ASC_NODE": 161.2281, "ARG_OF_PERICENTER": 264.4535, "MEAN_ANOMALY": 148.9279, "EPHEMERIS_TYPE": 0, "CLASSIFICATION_TYPE": "U", "NORAD_CAT_ID": 66500, "ELEMENT_SET_NO": 999, "REV_AT_EPOCH": 464, "BSTAR": -0.04033786, "MEAN_MOTION_DOT": -0.02346308, "MEAN_MOTION_DDOT": 0}, "tle": {"line1": "1 66500U 25263R   25340.58335648 -.02346308  00000+0 -40338-1 0  9997", "line2": "2 66500  42.9993 161.2281 0001821 264.4535 148.9279 15.54009963  4643"}}, "geometry": {"type": "Point", "coordinates": [-162.72577618711645, 30.622834318580253]}}, {"type": "Feature", "properties": {"norad_id": 66501, "name": "STARLINK-35897", "group": "last-30-days", "lat": 42.93898386676297, "lon": -115.29920274862776, "alt_km": 395.54547378796633, "timestamp": "2025-12-07T03:52:31.203494+00:00", "meta": {"OBJECT_NAME": "STARLINK-35897", "OBJECT_ID": "2025-263S", "EPOCH": "2025-12-06T14:00:01.999872", "MEAN_MOTION": 15.58012348, "ECCENTRICITY": 0.0001551, "INCLINATION": 42.9997, "RA_OF_ASC_NODE": 161.1521, "ARG_OF_PERICENTER": 275.5969, "MEAN_ANOMALY": 168.4755, "EPHEMERIS_TYPE": 0, "CLASSIFICATION_TYPE": "U", "NORAD_CAT_ID": 66501, "ELEMENT_SET_NO": 999, "REV_AT_EPOCH": 464, "BSTAR": -0.030826796, "MEAN_MOTION_DOT": -0.02112705, "MEAN_MOTION_DDOT": 0}, "tle": {"line1": "1 66501U 25263S   25340.58335648 -.02112705  00000+0 -30827-1 0  9992", "line2": "2 66501  42.9997 161.1521 0001551 275.5969 168.4755 15.58012348  4649"}}, "geometry": {"type": "Point", "coordinates": [-115.29920274862776, 42.93898386676297]}}, {"type": "Feature", "properties": {"norad_id": 66502, "name": "STARLINK-35922", "group": "last-30-days", "lat": 42.877820599794966, "lon": -107.45329503118442, "alt_km": 395.5129516122961, "timestamp": "2025-12-07T03:52:31.203504+00:00", "meta": {"OBJECT_NAME": "STARLINK-35922", "OBJECT_ID": "2025-263T", "EPOCH": "2025-12-06T14:00:01.999872", "MEAN_MOTION": 15.58009056, "ECCENTRICITY": 0.00014504, "INCLINATION": 42.9997, "RA_OF_ASC_NODE": 161.137, "ARG_OF_PERICENTER": 271.2405, "MEAN_ANOMALY": 178.587, "EPHEMERIS_TYPE": 0, "CLASSIFICATION_TYPE": "U", "NORAD_CAT_ID": 66502, "ELEMENT_SET_NO": 999, "REV_AT_EPOCH": 464, "BSTAR": -0.030781996, "MEAN_MOTION_DOT": -0.02109667, "MEAN_MOTION_DDOT": 0}, "tle": {"line1": "1 66502U 25263T   25340.58335648 -.02109667  00000+0 -30782-1 0  9996", "line2": "2 66502  42.9997 161.1370 0001450 271.2405 178.5870 15.58009056  4640"}}, "geometry": {"type": "Point", "coordinates": [-107.45329503118442, 42.877820599794966]}}, {"type": "Feature", "properties": {"norad_id": 66503, "name": "STARLINK-35917", "group": "last-30-days", "lat": 42.539675231196654, "lon": -102.25973057718376, "alt_km": 395.54909721060903, "timestamp": "2025-12-07T03:52:31.203514+00:00", "meta": {"OBJECT_NAME": "STARLINK-35917", "OBJECT_ID": "2025-263U", "EPOCH": "2025-12-06T14:00:01.999872", "MEAN_MOTION": 15.58010186, "ECCENTRICITY": 0.00014173, "INCLINATION": 42.9997, "RA_OF_ASC_NODE": 161.1277, "ARG_OF_PERICENTER": 272.9925, "MEAN_ANOMALY": 180.6688, "EPHEMERIS_TYPE": 0, "CLASSIFICATION_TYPE": "U", "NORAD_CAT_ID": 66503, "ELEMENT_SET_NO": 999, "REV_AT_EPOCH": 464, "BSTAR": -0.030820342, "MEAN_MOTION_DOT": -0.02112064, "MEAN_MOTION_DDOT": 0}, "tle": {"line1": "1 66503U 25263U   25340.58335648 -.02112064  00000+0 -30820-1 0  9995", "line2": "2 66503  42.9997 161.1277 0001417 272.9925 180.6688 15.58010186  4642"}}, "geometry": {"type": "Point", "coordinates": [-102.25973057718376, 42.539675231196654]}}, {"type": "Feature", "properties": {"norad_id": 66504, "name": "STARLINK-35916", "group": "last-30-days", "lat": 18.096884916605127, "lon": 179.30296069904654, "alt_km": 444.70154433166135, "timestamp": "2025-12-07T03:52:31.203526+00:00", "meta": {"OBJECT_NAME": "STARLINK-35916", "OBJECT_ID": "2025-263V", "EPOCH": "2025-12-06T14:00:01.999872", "MEAN_MOTION": 15.41759666, "ECCENTRICITY": 0.00018958, "INCLINATION": 42.9998, "RA_OF_ASC_NODE": 162.1062, "ARG_OF_PERICENTER": 246.858, "MEAN_ANOMALY": 169.6943, "EPHEMERIS_TYPE": 0, "CLASSIFICATION_TYPE": "U", "NORAD_CAT_ID": 66504, "ELEMENT_SET_NO": 999, "REV_AT_EPOCH": 464, "BSTAR": -0.037989283, "MEAN_MOTION_DOT": -0.01486939, "MEAN_MOTION_DDOT": 0}, "tle": {"line1": "1 66504U 25263V   25340.58335648 -.01486939  00000+0 -37989-1 0  9993", "line2": "2 66504  42.9998 162.1062 0001895 246.8580 169.6943 15.41759666  4640"}}, "geometry": {"type": "Point", "coordinates": [179.30296069904654, 18.096884916605127]}}, {"type": "Feature", "properties": {"norad_id": 66505, "name": "STARLINK-34766", "group": "last-30-days", "lat": 42.97840225009208, "lon": -112.68706327459397, "alt_km": 395.5745667441188, "timestamp": "2025-12-07T03:52:31.203539+00:00", "meta": {"OBJECT_NAME": "STARLINK-34766", "OBJECT_ID": "2025-263W", "EPOCH": "2025-12-06T14:00:01.999872", "MEAN_MOTION": 15.58013523, "ECCENTRICITY": 0.00015577, "INCLINATION": 42.9997, "RA_OF_ASC_NODE": 161.1467, "ARG_OF_PERICENTER": 273.1753, "MEAN_ANOMALY": 172.8148, "EPHEMERIS_TYPE": 0, "CLASSIFICATION_TYPE": "U", "NORAD_CAT_ID": 66505, "ELEMENT_SET_NO": 999, "REV_AT_EPOCH": 464, "BSTAR": -0.030882391, "MEAN_MOTION_DOT": -0.02116183, "MEAN_MOTION_DDOT": 0}, "tle": {"line1": "1 66505U 25263W   25340.58335648 -.02116183  00000+0 -30882-1 0  9991", "line2": "2 66505  42.9997 161.1467 0001557 273.1753 172.8148 15.58013523  4644"}}, "geometry": {"type": "Point", "coordinates": [-112.68706327459397, 42.97840225009208]}}, {"type": "Feature", "properties": {"norad_id": 66506, "name": "STARLINK-34765", "group": "last-30-days", "lat": 42.95806823458975, "lon": -110.06897398030564, "alt_km": 395.5424269183941, "timestamp": "2025-12-07T03:52:31.203549+00:00", "meta": {"OBJECT_NAME": "STARLINK-34765", "OBJECT_ID": "2025-263X", "EPOCH": "2025-12-06T14:00:01.999872", "MEAN_MOTION": 15.58014399, "ECCENTRICITY": 0.00014951, "INCLINATION": 42.9997, "RA_OF_ASC_NODE": 161.1426, "ARG_OF_PERICENTER": 272.569, "MEAN_ANOMALY": 175.3379, "EPHEMERIS_TYPE": 0, "CLASSIFICATION_TYPE": "U", "NORAD_CAT_ID": 66506, "ELEMENT_SET_NO": 999, "REV_AT_EPOCH": 464, "BSTAR": -0.03089658, "MEAN_MOTION_DOT": -0.02117067, "MEAN_MOTION_DDOT": 0}, "tle": {"line1": "1 66506U 25263X   25340.58335648 -.02117067  00000+0 -30897-1 0  9990", "line2": "2 66506  42.9997 161.1426 0001495 272.5690 175.3379 15.58014399  4640"}}, "geometry": {"type": "Point", "coordinates": [-110.06897398030564, 42.95806823458975]}}, {"type": "Feature", "properties": {"norad_id": 66507, "name": "STARLINK-34767", "group": "last-30-days", "lat": 42.73844393861594, "lon": -104.85073936838825, "alt_km": 395.53257690251485, "timestamp": "2025-12-07T03:52:31.203559+00:00", "meta": {"OBJECT_NAME": "STARLINK-34767", "OBJECT_ID": "2025-263Y", "EPOCH": "2025-12-06T14:00:01.999872", "MEAN_MOTION": 15.58010611, "ECCENTRICITY": 0.00014328, "INCLINATION": 42.9999, "RA_OF_ASC_NODE": 161.1318, "ARG_OF_PERICENTER": 272.2623, "MEAN_ANOMALY": 179.4829, "EPHEMERIS_TYPE": 0, "CLASSIFICATION_TYPE": "U", "NORAD_CAT_ID": 66507, "ELEMENT_SET_NO": 999, "REV_AT_EPOCH": 464, "BSTAR": -0.030839685, "MEAN_MOTION_DOT": -0.02113284, "MEAN_MOTION_DDOT": 0}, "tle": {"line1": "1 66507U 25263Y   25340.58335648 -.02113284  00000+0 -30840-1 0  9996", "line2": "2 66507  42.9999 161.1318 0001432 272.2623 179.4829 15.58010611  4645"}}, "geometry": {"type": "Point", "coordinates": [-104.85073936838825, 42.73844393861594]}}, {"type": "Feature", "properties": {"norad_id": 66508, "name": "STARLINK-35608", "group": "last-30-days", "lat": 41.96936915511343, "lon": -97.14293381408423, "alt_km": 395.68327608140225, "timestamp": "2025-12-07T03:52:31.203571+00:00", "meta": {"OBJECT_NAME": "STARLINK-35608", "OBJECT_ID": "2025-263Z", "EPOCH": "2025-12-06T14:00:01.999872", "MEAN_MOTION": 15.58012958, "ECCENTRICITY": 0.00014817, "INCLINATION": 42.9996, "RA_OF_ASC_NODE": 161.118, "ARG_OF_PERICENTER": 272.6432, "MEAN_ANOMALY": 184.8498, "EPHEMERIS_TYPE": 0, "CLASSIFICATION_TYPE": "U", "NORAD_CAT_ID": 66508, "ELEMENT_SET_NO": 999, "REV_AT_EPOCH": 464, "BSTAR": -0.030870125, "MEAN_MOTION_DOT": -0.02115342, "MEAN_MOTION_DDOT": 0}, "tle": {"line1": "1 66508U 25263Z   25340.58335648 -.02115342  00000+0 -30870-1 0  9997", "line2": "2 66508  42.9996 161.1180 0001481 272.6432 184.8498 15.58012958  4644"}}, "geometry": {"type": "Point", "coordinates": [-97.14293381408423, 41.96936915511343]}}]}